[lysithea]
albedo=0.03
color=1., 0.9, 0.75
coord_func=ell_orbit
halo=true
lighting=true
name=Lysithea
orbit_AscendingNode=0.2875682490706584
orbit_Eccentricity=0.1281232102397132
orbit_Epoch=2454619.50000
orbit_Inclination=24.59040357245339
orbit_LongOfPericenter=78.9389828310578000
orbit_MeanLongitude=337.5492383800380000
orbit_Period=259.0469768771512
orbit_SemiMajorAxis=11714356.05630203
orbit_visualization_period=259.0469768771512
parent=Jupiter
radius=12
rot_equator_ascending_node=213.7
rot_obliquity=15.5
rot_periode=259.0469768771512
rot_rotation_offset=14.9
tex_halo=star16x16.png
tex_map=lune.png
type=moon

[mars]
albedo=0.150
atmosphere=1
color=1., 0.768, 0.504
coord_func=mars_special
halo=true
landscape=mars
lighting=true
name=Mars
oblateness=0.0064763
orbit_visualization_period=686.971
parent=Sun
radius=3397
rot_equator_ascending_node=82.91
rot_obliquity=26.72
rot_periode=24.622962
rot_pole_de=52.88212
rot_pole_ra=317.6725
rot_rotation_offset=136.005
tex_halo=star16x16.png
tex_map=mars.png
type=planet

[mercury]
albedo=0.06
color=1.0, 0.964, 0.914
coord_func=mercury_special
halo=true
lighting=true
name=Mercury
orbit_visualization_period=87.97
parent=Sun
radius=2439.7
rot_equator_ascending_node=48.42
rot_obliquity=7.01
rot_periode=1407.509405
rot_pole_de=61.45
rot_pole_ra=281.001
rot_rotation_offset=291.20
tex_halo=star16x16.png
tex_map=mercury.png
type=planet

[metis]
albedo=0.07
color=1., 0.9, 0.75
coord_func=ell_orbit
halo=true
lighting=true
name=Metis (moon)
orbit_AscendingNode=99.25512108544794
orbit_Eccentricity=0.007934699878209682
orbit_Epoch=2454619.50000
orbit_Inclination=0.06061013894618508
orbit_LongOfPericenter=114.5010069923130000
orbit_MeanLongitude=113.3620494967750000
orbit_Period=0.2992264694514691
orbit_SemiMajorAxis=128963.2809817095
orbit_visualization_period=0.2992264694514691
parent=Jupiter
radius=20
rot_equator_ascending_node=213.7
rot_obliquity=15.5
rot_periode=0.2992264694514691
rot_rotation_offset=14.9
tex_halo=star16x16.png
tex_map=lune.png
type=moon

[mimas]
albedo=0.5
color=1., 0.983, 0.972
coord_func=mimas_special
halo=true
lighting=true
name=Mimas
orbit_visualization_period=0.9424218
parent=Saturn
radius=198.6
rot_equator_ascending_node=137.8
rot_obliquity=1.5
rot_periode=22.61812344
rot_rotation_offset=190.7
tex_halo=star16x16.png
tex_map=mimas.png
type=moon

[miranda]
albedo=0.32
color=1., 0.902, 0.871
coord_func=miranda_special
halo=true
lighting=true
name=Miranda
orbit_visualization_period=1.413
parent=Uranus
radius=235.8
rot_obliquity=0.0
rot_periode=33.92350158
rot_rotation_offset=195.0
tex_halo=star16x16.png
tex_map=miranda.png
type=moon

[moon]
albedo=0.12
color=1., 0.986, 0.968
coord_func=lunar_special
halo=true
landscape=moon
lighting=true
name=Moon
normals_map=moon_normals.png
orbit_visualization_period=27.321582
parent=Earth
radius=1737.4
rot_equator_ascending_node=0
rot_obliquity=23.45
rot_periode=655.7198811
rot_rotation_offset=38
tex_halo=halo.png
tex_map=moon.png
type=moon

[naiad]
albedo=0.06
color=1., 0.9, 0.75
coord_func=ell_orbit
halo=true
lighting=true
name=Naiad
orbit_AscendingNode=171.8967736635123
orbit_Eccentricity=0.001713269683018113
orbit_Epoch=2454619.50000
orbit_Inclination=4.188510303034086
orbit_LongOfPericenter=224.2441011
orbit_MeanLongitude=263.8597893
orbit_Period=0.2952080157587180
orbit_SemiMajorAxis=48293.62282849867
orbit_visualization_period=0.2952080157587180
parent=Neptune
radius=170
rot_equator_ascending_node=213.7
rot_obliquity=15.5
rot_periode=0.2952080157587180
rot_rotation_offset=14.9
tex_halo=star16x16.png
tex_map=lune.png
type=moon

[neptune]
albedo=0.62
atmosphere=1
color=0.44, 0.582, 1.
coord_func=neptune_special
halo=true
lighting=true
name=Neptune
oblateness=0.017081
orbit_visualization_period=60189
parent=Sun
radius=24764
ring_inner_size=40900
ring_outer_size=62932
rings=true
rot_periode=16.11
rot_pole_de=42.95
rot_pole_ra=299.347
rot_rotation_offset=228.65
tex_halo=star16x16.png
tex_map=neptune.png
tex_ring=neptune_rings.png #texture from Celestia
type=planet

[nereid]
albedo=0.2
color=1., 0.9, 0.75
coord_func=ell_orbit
halo=true
lighting=true
name=Nereid
orbit_AscendingNode=215.1788464851371
orbit_Eccentricity=0.7473678781920542
orbit_Epoch=2454619.50000
orbit_Inclination=28.46630994726174
orbit_LongOfPericenter=233.0325802
orbit_MeanLongitude=282.2538878
orbit_Period=360.4819063927587
orbit_SemiMajorAxis=5517300.895540984
orbit_visualization_period=360.4819063927587
parent=Neptune
radius=170
rot_equator_ascending_node=213.7
rot_obliquity=15.5
rot_periode=360.4819063927587
rot_rotation_offset=14.9
tex_halo=star16x16.png
tex_map=lune.png
type=moon

[neso]
albedo=0.06
color=1., 0.9, 0.75
coord_func=ell_orbit
halo=true
lighting=true
name=Neso
orbit_AscendingNode=23.02370632501001
orbit_Eccentricity=0.6299942939512408
orbit_Epoch=2454619.50000
orbit_Inclination=111.8841686447457
orbit_LongOfPericenter=107.4960759
orbit_MeanLongitude=74.4524916
orbit_Period=9358.591084432848
orbit_SemiMajorAxis=48373926.07254116
orbit_visualization_period=9358.591084432848
parent=Neptune
radius=60
rot_equator_ascending_node=213.7
rot_obliquity=15.5
rot_periode=9358.591084432848
rot_rotation_offset=14.9
tex_halo=star16x16.png
tex_map=lune.png
type=moon

[nix]
albedo=0.195
color=1., 1., 1.
coord_func=ell_orbit
halo=true
lighting=true
name=Nix
orbit_AscendingNode=227.561028688
orbit_Eccentricity=0.016255202
orbit_Epoch=2455767.5
orbit_Inclination=0.195
orbit_LongOfPericenter=274.964880646
orbit_Period=-25.560828309
orbit_SemiMajorAxis=48708
orbit_visualization_period=25.560828309
parent=Pluto
radius=92
rot_obliquity=1.0
rot_periode=25.560828309
rot_rotation_offset=0.0
tex_halo=star16x16.png
tex_map=lune.png
type=moon

[oberon]
albedo=0.23
color=1., 0.875, 0.798
coord_func=oberon_special
halo=true
lighting=true
name=Oberon
orbit_visualization_period=13.463
parent=Uranus
radius=761.4
rot_obliquity=0.0
rot_periode=323.1175675
rot_rotation_offset=195.0
tex_halo=star16x16.png
tex_map=oberon.png
type=moon

[p2010v1%28ikeyamurakami%29]
absolute_magnitude=8
albedo=0.1
color=1.0, 1.0, 1.0
coord_func=comet_orbit
dust_brightnessfactor=1.5
dust_lengthfactor=0.4
dust_widthfactor=1.5
lighting=false
name=P/2010 V1 (Ikeya-Murakami)
orbit_ArgOfPericenter=152.3924
orbit_AscendingNode=3.7786
orbit_Eccentricity=0.489174
orbit_Inclination=9.3873
orbit_PericenterDistance=1.572817
orbit_TimeAtPericenter=2457457.66469907
orbit_good=360
parent=Sun
radius=5
slope_parameter=4
tex_map=nomap.png
type=comet

[p2013cu129%28panstarrs%29]
absolute_magnitude=18
albedo=0.1
color=1.0, 1.0, 1.0
coord_func=comet_orbit
dust_brightnessfactor=1.5
dust_lengthfactor=0.4
dust_widthfactor=1.5
lighting=false
name=P/2013 CU129 (PANSTARRS)
orbit_ArgOfPericenter=211.9519
orbit_AscendingNode=46.209
orbit_Eccentricity=0.722045
orbit_Inclination=12.1493
orbit_PericenterDistance=0.799924
orbit_TimeAtPericenter=2456511.37069444
orbit_good=130
parent=Sun
radius=5
slope_parameter=2
tex_map=nomap.png
type=comet

[pasiphae]
albedo=0.03
color=1., 0.9, 0.75
coord_func=ell_orbit
halo=true
lighting=true
name=Pasiphae
orbit_AscendingNode=345.6392561172470
orbit_Eccentricity=0.2932152942598935
orbit_Epoch=2454619.50000
orbit_Inclination=142.0571683364765
orbit_LongOfPericenter=185.9358722739560000
orbit_MeanLongitude=155.7385593991940000
orbit_Period=709.0532625178348
orbit_SemiMajorAxis=22921971.82698924
orbit_visualization_period=709.0532625178348
parent=Jupiter
radius=40
rot_equator_ascending_node=213.7
rot_obliquity=15.5
rot_periode=709.0532625178348
rot_rotation_offset=14.9
tex_halo=star16x16.png
tex_map=lune.png
type=moon

[phobos]
albedo=0.06
color=1., 0.919, 0.806
coord_func=phobos_special
halo=true
lighting=true
name=Phobos
orbit_visualization_period=0.319
parent=Mars
radius=11.1
rot_equator_ascending_node=186.6
rot_obliquity=0.6
rot_periode=7.653843687
rot_rotation_offset=318.9
tex_halo=star16x16.png
tex_map=phobos.png
type=moon

[pluto]
albedo=0.55
color=1.0, 0.848, 0.712
coord_func=pluto_special
halo=true
lighting=true
name=Pluto
orbit_visualization_period=90797
parent=Sun
radius=1195.
rot_equator_ascending_node=228.34
rot_obliquity=-115.60
rot_periode=-153.293904
rot_pole_de=9.09
rot_pole_ra=313.02
rot_rotation_offset=320.75
tex_halo=star16x16.png
tex_map=pluto.png
type=dwarf planet

[proteus]
albedo=0.06
color=1., 0.9, 0.75
coord_func=ell_orbit
halo=true
lighting=true
name=Proteus
orbit_AscendingNode=8.601516584903857
orbit_Eccentricity=0.0002692747866371301
orbit_Epoch=2454619.50000
orbit_Inclination=1.100351508385464
orbit_LongOfPericenter=271.9733987
orbit_MeanLongitude=67.98677168
orbit_Period=1.122852570617394
orbit_SemiMajorAxis=117675.5347599977
orbit_visualization_period=1.122852570617394
parent=Neptune
radius=208
rot_equator_ascending_node=213.7
rot_obliquity=15.5
rot_periode=1.122852570617394
rot_rotation_offset=14.9
tex_halo=star16x16.png
tex_map=proteus.png
type=moon

[psamathe]
albedo=0.06
color=1., 0.9, 0.75
coord_func=ell_orbit
halo=true
lighting=true
name=Psamathe
orbit_AscendingNode=312.6542992791928
orbit_Eccentricity=0.2226171984343604
orbit_Epoch=2454619.50000
orbit_Inclination=119.8213439712103
orbit_LongOfPericenter=122.424815
orbit_MeanLongitude=45.2205867
orbit_Period=9130.624091904599
orbit_SemiMajorAxis=47585137.76667986
orbit_visualization_period=9130.624091904599
parent=Neptune
radius=40
rot_equator_ascending_node=213.7
rot_obliquity=15.5
rot_periode=9130.624091904599
rot_rotation_offset=14.9
tex_halo=star16x16.png
tex_map=lune.png
type=moon

[rhea]
albedo=0.7
color=1., 0.981, 0.942
coord_func=rhea_special
halo=true
lighting=true
name=Rhea
orbit_visualization_period=4.518
parent=Saturn
radius=764.
rot_obliquity=0.0
rot_periode=108.4200630
rot_rotation_offset=195.0
tex_halo=star16x16.png
tex_map=rhea.png
type=moon

